<?xml version="1.0" encoding="UTF-8"?>
<gpx version="1.1" creator="Run Soundtrack demo" xmlns="http://www.topografix.com/GPX/1/1">
  <metadata>
    <name>Berlin Demo Run</name>
    <desc>A synthetic 10km demo route near Berlin Tiergarten for testing Run Soundtrack</desc>
  </metadata>
  <trk>
    <name>Berlin Demo Run</name>
    <trkseg>
      <trkpt lat="52.520000" lon="13.470500"><ele>40.0</ele></trkpt>
      <trkpt lat="52.521136" lon="13.470478"><ele>40.4</ele></trkpt>
      <trkpt lat="52.522272" lon="13.470412"><ele>40.7</ele></trkpt>
      <trkpt lat="52.523407" lon="13.470301"><ele>41.1</ele></trkpt>
      <trkpt lat="52.524541" lon="13.470146"><ele>41.4</ele></trkpt>
      <trkpt lat="52.525672" lon="13.469948"><ele>41.6</ele></trkpt>
      <trkpt lat="52.526800" lon="13.469706"><ele>41.9</ele></trkpt>
      <trkpt lat="52.527925" lon="13.469420"><ele>42.1</ele></trkpt>
      <trkpt lat="52.529044" lon="13.469091"><ele>42.3</ele></trkpt>
      <trkpt lat="52.530158" lon="13.468719"><ele>42.4</ele></trkpt>
      <trkpt lat="52.531266" lon="13.468305"><ele>42.5</ele></trkpt>
      <trkpt lat="52.532366" lon="13.467848"><ele>42.6</ele></trkpt>
      <trkpt lat="52.533457" lon="13.467350"><ele>42.6</ele></trkpt>
      <trkpt lat="52.534540" lon="13.466811"><ele>42.6</ele></trkpt>
      <trkpt lat="52.535613" lon="13.466231"><ele>42.6</ele></trkpt>
      <trkpt lat="52.536675" lon="13.465610"><ele>42.6</ele></trkpt>
      <trkpt lat="52.537725" lon="13.464950"><ele>42.5</ele></trkpt>
      <trkpt lat="52.538763" lon="13.464251"><ele>42.5</ele></trkpt>
      <trkpt lat="52.539788" lon="13.463513"><ele>42.3</ele></trkpt>
      <trkpt lat="52.540799" lon="13.462738"><ele>42.2</ele></trkpt>
      <trkpt lat="52.541796" lon="13.461925"><ele>42.1</ele></trkpt>
      <trkpt lat="52.542777" lon="13.461076"><ele>41.9</ele></trkpt>
      <trkpt lat="52.543743" lon="13.460191"><ele>41.7</ele></trkpt>
      <trkpt lat="52.544693" lon="13.459272"><ele>41.5</ele></trkpt>
      <trkpt lat="52.545626" lon="13.458318"><ele>41.3</ele></trkpt>
      <trkpt lat="52.546541" lon="13.457331"><ele>41.0</ele></trkpt>
      <trkpt lat="52.547439" lon="13.456312"><ele>40.8</ele></trkpt>
      <trkpt lat="52.548319" lon="13.455261"><ele>40.5</ele></trkpt>
      <trkpt lat="52.549180" lon="13.454179"><ele>40.3</ele></trkpt>
      <trkpt lat="52.550023" lon="13.453067"><ele>40.0</ele></trkpt>
      <trkpt lat="52.550846" lon="13.451926"><ele>39.8</ele></trkpt>
      <trkpt lat="52.551650" lon="13.450756"><ele>39.5</ele></trkpt>
      <trkpt lat="52.552434" lon="13.449560"><ele>39.2</ele></trkpt>
      <trkpt lat="52.553199" lon="13.448337"><ele>39.0</ele></trkpt>
      <trkpt lat="52.553943" lon="13.447088"><ele>38.7</ele></trkpt>
      <trkpt lat="52.554667" lon="13.445815"><ele>38.4</ele></trkpt>
      <trkpt lat="52.555370" lon="13.444518"><ele>38.2</ele></trkpt>
      <trkpt lat="52.556052" lon="13.443198"><ele>37.9</ele></trkpt>
      <trkpt lat="52.556713" lon="13.441856"><ele>37.7</ele></trkpt>
      <trkpt lat="52.557353" lon="13.440493"><ele>37.5</ele></trkpt>
      <trkpt lat="52.557970" lon="13.439110"><ele>37.2</ele></trkpt>
      <trkpt lat="52.558566" lon="13.437708"><ele>37.0</ele></trkpt>
      <trkpt lat="52.559140" lon="13.436288"><ele>36.8</ele></trkpt>
      <trkpt lat="52.559690" lon="13.434850"><ele>36.6</ele></trkpt>
      <trkpt lat="52.560218" lon="13.433396"><ele>36.5</ele></trkpt>
      <trkpt lat="52.560722" lon="13.431926"><ele>36.3</ele></trkpt>
      <trkpt lat="52.561201" lon="13.430441"><ele>36.1</ele></trkpt>
      <trkpt lat="52.561657" lon="13.428943"><ele>36.0</ele></trkpt>
      <trkpt lat="52.562087" lon="13.427432"><ele>35.9</ele></trkpt>
      <trkpt lat="52.562492" lon="13.425908"><ele>35.7</ele></trkpt>
      <trkpt lat="52.562871" lon="13.424374"><ele>35.6</ele></trkpt>
      <trkpt lat="52.563224" lon="13.422829"><ele>35.5</ele></trkpt>
      <trkpt lat="52.563549" lon="13.421275"><ele>35.5</ele></trkpt>
      <trkpt lat="52.563847" lon="13.419712"><ele>35.4</ele></trkpt>
      <trkpt lat="52.564116" lon="13.418142"><ele>35.3</ele></trkpt>
      <trkpt lat="52.564357" lon="13.416564"><ele>35.3</ele></trkpt>
      <trkpt lat="52.564568" lon="13.414981"><ele>35.2</ele></trkpt>
      <trkpt lat="52.564750" lon="13.413392"><ele>35.2</ele></trkpt>
      <trkpt lat="52.564902" lon="13.411799"><ele>35.1</ele></trkpt>
      <trkpt lat="52.565023" lon="13.410203"><ele>35.1</ele></trkpt>
      <trkpt lat="52.565113" lon="13.408604"><ele>35.1</ele></trkpt>
      <trkpt lat="52.565171" lon="13.407003"><ele>35.0</ele></trkpt>
      <trkpt lat="52.565198" lon="13.405401"><ele>35.0</ele></trkpt>
      <trkpt lat="52.565193" lon="13.403798"><ele>35.0</ele></trkpt>
      <trkpt lat="52.565157" lon="13.402197"><ele>35.0</ele></trkpt>
      <trkpt lat="52.565088" lon="13.400596"><ele>34.9</ele></trkpt>
      <trkpt lat="52.564987" lon="13.398999"><ele>34.9</ele></trkpt>
      <trkpt lat="52.564855" lon="13.397404"><ele>34.9</ele></trkpt>
      <trkpt lat="52.564691" lon="13.395813"><ele>34.8</ele></trkpt>
      <trkpt lat="52.564495" lon="13.394227"><ele>34.8</ele></trkpt>
      <trkpt lat="52.564268" lon="13.392646"><ele>34.7</ele></trkpt>
      <trkpt lat="52.564010" lon="13.391072"><ele>34.7</ele></trkpt>
      <trkpt lat="52.563722" lon="13.389505"><ele>34.6</ele></trkpt>
      <trkpt lat="52.563404" lon="13.387947"><ele>34.5</ele></trkpt>
      <trkpt lat="52.563057" lon="13.386397"><ele>34.4</ele></trkpt>
      <trkpt lat="52.562682" lon="13.384858"><ele>34.3</ele></trkpt>
      <trkpt lat="52.562279" lon="13.383329"><ele>34.2</ele></trkpt>
      <trkpt lat="52.561848" lon="13.381811"><ele>34.1</ele></trkpt>
      <trkpt lat="52.561391" lon="13.380306"><ele>33.9</ele></trkpt>
      <trkpt lat="52.560909" lon="13.378815"><ele>33.8</ele></trkpt>
      <trkpt lat="52.560402" lon="13.377338"><ele>33.6</ele></trkpt>
      <trkpt lat="52.559871" lon="13.375875"><ele>33.5</ele></trkpt>
      <trkpt lat="52.559317" lon="13.374429"><ele>33.3</ele></trkpt>
      <trkpt lat="52.558740" lon="13.373000"><ele>33.1</ele></trkpt>
      <trkpt lat="52.558142" lon="13.371589"><ele>32.9</ele></trkpt>
      <trkpt lat="52.557523" lon="13.370196"><ele>32.6</ele></trkpt>
      <trkpt lat="52.556884" lon="13.368823"><ele>32.4</ele></trkpt>
      <trkpt lat="52.556226" lon="13.367471"><ele>32.2</ele></trkpt>
      <trkpt lat="52.555549" lon="13.366140"><ele>31.9</ele></trkpt>
      <trkpt lat="52.554854" lon="13.364831"><ele>31.7</ele></trkpt>
      <trkpt lat="52.554140" lon="13.363546"><ele>31.4</ele></trkpt>
      <trkpt lat="52.553410" lon="13.362285"><ele>31.2</ele></trkpt>
      <trkpt lat="52.552663" lon="13.361048"><ele>30.9</ele></trkpt>
      <trkpt lat="52.551898" lon="13.359838"><ele>30.6</ele></trkpt>
      <trkpt lat="52.551118" lon="13.358655"><ele>30.4</ele></trkpt>
      <trkpt lat="52.550321" lon="13.357500"><ele>30.1</ele></trkpt>
      <trkpt lat="52.549509" lon="13.356373"><ele>29.8</ele></trkpt>
      <trkpt lat="52.548680" lon="13.355276"><ele>29.6</ele></trkpt>
      <trkpt lat="52.547835" lon="13.354210"><ele>29.3</ele></trkpt>
      <trkpt lat="52.546974" lon="13.353174"><ele>29.1</ele></trkpt>
      <trkpt lat="52.546098" lon="13.352171"><ele>28.8</ele></trkpt>
      <trkpt lat="52.545205" lon="13.351201"><ele>28.6</ele></trkpt>
      <trkpt lat="52.544296" lon="13.350264"><ele>28.4</ele></trkpt>
      <trkpt lat="52.543371" lon="13.349362"><ele>28.2</ele></trkpt>
      <trkpt lat="52.542430" lon="13.348495"><ele>28.0</ele></trkpt>
      <trkpt lat="52.541472" lon="13.347664"><ele>27.9</ele></trkpt>
      <trkpt lat="52.540498" lon="13.346870"><ele>27.7</ele></trkpt>
      <trkpt lat="52.539508" lon="13.346113"><ele>27.6</ele></trkpt>
      <trkpt lat="52.538502" lon="13.345395"><ele>27.5</ele></trkpt>
      <trkpt lat="52.537480" lon="13.344715"><ele>27.4</ele></trkpt>
      <trkpt lat="52.536442" lon="13.344075"><ele>27.4</ele></trkpt>
      <trkpt lat="52.535388" lon="13.343474"><ele>27.4</ele></trkpt>
      <trkpt lat="52.534320" lon="13.342914"><ele>27.4</ele></trkpt>
      <trkpt lat="52.533236" lon="13.342395"><ele>27.4</ele></trkpt>
      <trkpt lat="52.532139" lon="13.341918"><ele>27.5</ele></trkpt>
      <trkpt lat="52.531029" lon="13.341483"><ele>27.5</ele></trkpt>
      <trkpt lat="52.529905" lon="13.341089"><ele>27.7</ele></trkpt>
      <trkpt lat="52.528771" lon="13.340739"><ele>27.8</ele></trkpt>
      <trkpt lat="52.527625" lon="13.340432"><ele>28.0</ele></trkpt>
      <trkpt lat="52.526470" lon="13.340168"><ele>28.2</ele></trkpt>
      <trkpt lat="52.525306" lon="13.339947"><ele>28.5</ele></trkpt>
      <trkpt lat="52.524135" lon="13.339771"><ele>28.8</ele></trkpt>
      <trkpt lat="52.522959" lon="13.339638"><ele>29.1</ele></trkpt>
      <trkpt lat="52.521777" lon="13.339550"><ele>29.4</ele></trkpt>
      <trkpt lat="52.520593" lon="13.339506"><ele>29.8</ele></trkpt>
      <trkpt lat="52.519407" lon="13.339506"><ele>30.2</ele></trkpt>
      <trkpt lat="52.518221" lon="13.339550"><ele>30.6</ele></trkpt>
      <trkpt lat="52.517037" lon="13.339638"><ele>31.1</ele></trkpt>
      <trkpt lat="52.515855" lon="13.339771"><ele>31.6</ele></trkpt>
      <trkpt lat="52.514678" lon="13.339947"><ele>32.1</ele></trkpt>
      <trkpt lat="52.513508" lon="13.340168"><ele>32.6</ele></trkpt>
      <trkpt lat="52.512344" lon="13.340432"><ele>33.2</ele></trkpt>
      <trkpt lat="52.511190" lon="13.340739"><ele>33.7</ele></trkpt>
      <trkpt lat="52.510047" lon="13.341089"><ele>34.3</ele></trkpt>
      <trkpt lat="52.508915" lon="13.341483"><ele>34.9</ele></trkpt>
      <trkpt lat="52.507795" lon="13.341918"><ele>35.5</ele></trkpt>
      <trkpt lat="52.506690" lon="13.342395"><ele>36.2</ele></trkpt>
      <trkpt lat="52.505600" lon="13.342914"><ele>36.8</ele></trkpt>
      <trkpt lat="52.504526" lon="13.343474"><ele>37.4</ele></trkpt>
      <trkpt lat="52.503468" lon="13.344075"><ele>38.1</ele></trkpt>
      <trkpt lat="52.502428" lon="13.344715"><ele>38.7</ele></trkpt>
      <trkpt lat="52.501405" lon="13.345395"><ele>39.3</ele></trkpt>
      <trkpt lat="52.500401" lon="13.346113"><ele>40.0</ele></trkpt>
      <trkpt lat="52.499416" lon="13.346870"><ele>40.6</ele></trkpt>
      <trkpt lat="52.498449" lon="13.347664"><ele>41.2</ele></trkpt>
      <trkpt lat="52.497501" lon="13.348495"><ele>41.8</ele></trkpt>
      <trkpt lat="52.496571" lon="13.349362"><ele>42.4</ele></trkpt>
      <trkpt lat="52.495661" lon="13.350264"><ele>42.9</ele></trkpt>
      <trkpt lat="52.494768" lon="13.351201"><ele>43.4</ele></trkpt>
      <trkpt lat="52.493894" lon="13.352171"><ele>44.0</ele></trkpt>
      <trkpt lat="52.493038" lon="13.353174"><ele>44.4</ele></trkpt>
      <trkpt lat="52.492199" lon="13.354210"><ele>44.9</ele></trkpt>
      <trkpt lat="52.491377" lon="13.355276"><ele>45.3</ele></trkpt>
      <trkpt lat="52.490572" lon="13.356373"><ele>45.7</ele></trkpt>
      <trkpt lat="52.489783" lon="13.357500"><ele>46.0</ele></trkpt>
      <trkpt lat="52.489009" lon="13.358655"><ele>46.4</ele></trkpt>
      <trkpt lat="52.488251" lon="13.359838"><ele>46.6</ele></trkpt>
      <trkpt lat="52.487508" lon="13.361048"><ele>46.9</ele></trkpt>
      <trkpt lat="52.486780" lon="13.362285"><ele>47.1</ele></trkpt>
      <trkpt lat="52.486067" lon="13.363546"><ele>47.2</ele></trkpt>
      <trkpt lat="52.485368" lon="13.364831"><ele>47.3</ele></trkpt>
      <trkpt lat="52.484684" lon="13.366140"><ele>47.4</ele></trkpt>
      <trkpt lat="52.484015" lon="13.367471"><ele>47.4</ele></trkpt>
      <trkpt lat="52.483360" lon="13.368823"><ele>47.3</ele></trkpt>
      <trkpt lat="52.482721" lon="13.370196"><ele>47.2</ele></trkpt>
      <trkpt lat="52.482098" lon="13.371589"><ele>47.1</ele></trkpt>
      <trkpt lat="52.481491" lon="13.373000"><ele>46.9</ele></trkpt>
      <trkpt lat="52.480901" lon="13.374429"><ele>46.7</ele></trkpt>
      <trkpt lat="52.480329" lon="13.375875"><ele>46.4</ele></trkpt>
      <trkpt lat="52.479775" lon="13.377338"><ele>46.1</ele></trkpt>
      <trkpt lat="52.479242" lon="13.378815"><ele>45.8</ele></trkpt>
      <trkpt lat="52.478730" lon="13.380306"><ele>45.4</ele></trkpt>
      <trkpt lat="52.478239" lon="13.381811"><ele>44.9</ele></trkpt>
      <trkpt lat="52.477772" lon="13.383329"><ele>44.4</ele></trkpt>
      <trkpt lat="52.477330" lon="13.384858"><ele>43.9</ele></trkpt>
      <trkpt lat="52.476914" lon="13.386397"><ele>43.4</ele></trkpt>
      <trkpt lat="52.476525" lon="13.387947"><ele>42.8</ele></trkpt>
      <trkpt lat="52.476165" lon="13.389505"><ele>42.1</ele></trkpt>
      <trkpt lat="52.475835" lon="13.391072"><ele>41.5</ele></trkpt>
      <trkpt lat="52.475536" lon="13.392646"><ele>40.8</ele></trkpt>
      <trkpt lat="52.475270" lon="13.394227"><ele>40.1</ele></trkpt>
      <trkpt lat="52.475038" lon="13.395813"><ele>39.4</ele></trkpt>
      <trkpt lat="52.474840" lon="13.397404"><ele>38.7</ele></trkpt>
      <trkpt lat="52.474678" lon="13.398999"><ele>37.9</ele></trkpt>
      <trkpt lat="52.474552" lon="13.400596"><ele>37.1</ele></trkpt>
      <trkpt lat="52.474464" lon="13.402197"><ele>36.4</ele></trkpt>
      <trkpt lat="52.474413" lon="13.403798"><ele>35.6</ele></trkpt>
      <trkpt lat="52.474400" lon="13.405401"><ele>34.8</ele></trkpt>
      <trkpt lat="52.474426" lon="13.407003"><ele>34.0</ele></trkpt>
      <trkpt lat="52.474490" lon="13.408604"><ele>33.2</ele></trkpt>
      <trkpt lat="52.474591" lon="13.410203"><ele>32.5</ele></trkpt>
      <trkpt lat="52.474731" lon="13.411799"><ele>31.7</ele></trkpt>
      <trkpt lat="52.474908" lon="13.413392"><ele>31.0</ele></trkpt>
      <trkpt lat="52.475121" lon="13.414981"><ele>30.2</ele></trkpt>
      <trkpt lat="52.475371" lon="13.416564"><ele>29.5</ele></trkpt>
      <trkpt lat="52.475655" lon="13.418142"><ele>28.8</ele></trkpt>
      <trkpt lat="52.475973" lon="13.419712"><ele>28.2</ele></trkpt>
      <trkpt lat="52.476323" lon="13.421275"><ele>27.5</ele></trkpt>
      <trkpt lat="52.476705" lon="13.422829"><ele>26.9</ele></trkpt>
      <trkpt lat="52.477117" lon="13.424374"><ele>26.4</ele></trkpt>
      <trkpt lat="52.477557" lon="13.425908"><ele>25.8</ele></trkpt>
      <trkpt lat="52.478023" lon="13.427432"><ele>25.3</ele></trkpt>
      <trkpt lat="52.478515" lon="13.428943"><ele>24.9</ele></trkpt>
      <trkpt lat="52.479031" lon="13.430441"><ele>24.4</ele></trkpt>
      <trkpt lat="52.479569" lon="13.431926"><ele>24.1</ele></trkpt>
      <trkpt lat="52.480128" lon="13.433396"><ele>23.7</ele></trkpt>
      <trkpt lat="52.480706" lon="13.434850"><ele>23.4</ele></trkpt>
      <trkpt lat="52.481302" lon="13.436288"><ele>23.2</ele></trkpt>
      <trkpt lat="52.481914" lon="13.437708"><ele>23.0</ele></trkpt>
      <trkpt lat="52.482543" lon="13.439110"><ele>22.8</ele></trkpt>
      <trkpt lat="52.483185" lon="13.440493"><ele>22.7</ele></trkpt>
      <trkpt lat="52.483841" lon="13.441856"><ele>22.7</ele></trkpt>
      <trkpt lat="52.484510" lon="13.443198"><ele>22.6</ele></trkpt>
      <trkpt lat="52.485191" lon="13.444518"><ele>22.7</ele></trkpt>
      <trkpt lat="52.485883" lon="13.445815"><ele>22.7</ele></trkpt>
      <trkpt lat="52.486587" lon="13.447088"><ele>22.9</ele></trkpt>
      <trkpt lat="52.487303" lon="13.448337"><ele>23.0</ele></trkpt>
      <trkpt lat="52.488030" lon="13.449560"><ele>23.2</ele></trkpt>
      <trkpt lat="52.488768" lon="13.450756"><ele>23.5</ele></trkpt>
      <trkpt lat="52.489518" lon="13.451926"><ele>23.8</ele></trkpt>
      <trkpt lat="52.490281" lon="13.453067"><ele>24.1</ele></trkpt>
      <trkpt lat="52.491056" lon="13.454179"><ele>24.5</ele></trkpt>
      <trkpt lat="52.491845" lon="13.455261"><ele>24.9</ele></trkpt>
      <trkpt lat="52.492649" lon="13.456312"><ele>25.3</ele></trkpt>
      <trkpt lat="52.493467" lon="13.457331"><ele>25.8</ele></trkpt>
      <trkpt lat="52.494301" lon="13.458318"><ele>26.3</ele></trkpt>
      <trkpt lat="52.495152" lon="13.459272"><ele>26.8</ele></trkpt>
      <trkpt lat="52.496021" lon="13.460191"><ele>27.4</ele></trkpt>
      <trkpt lat="52.496909" lon="13.461076"><ele>27.9</ele></trkpt>
      <trkpt lat="52.497815" lon="13.461925"><ele>28.5</ele></trkpt>
      <trkpt lat="52.498742" lon="13.462738"><ele>29.1</ele></trkpt>
      <trkpt lat="52.499689" lon="13.463513"><ele>29.7</ele></trkpt>
      <trkpt lat="52.500657" lon="13.464251"><ele>30.3</ele></trkpt>
      <trkpt lat="52.501647" lon="13.464950"><ele>31.0</ele></trkpt>
      <trkpt lat="52.502658" lon="13.465610"><ele>31.6</ele></trkpt>
      <trkpt lat="52.503691" lon="13.466231"><ele>32.3</ele></trkpt>
      <trkpt lat="52.504745" lon="13.466811"><ele>32.9</ele></trkpt>
      <trkpt lat="52.505821" lon="13.467350"><ele>33.5</ele></trkpt>
      <trkpt lat="52.506917" lon="13.467848"><ele>34.1</ele></trkpt>
      <trkpt lat="52.508033" lon="13.468305"><ele>34.8</ele></trkpt>
      <trkpt lat="52.509169" lon="13.468719"><ele>35.4</ele></trkpt>
      <trkpt lat="52.510322" lon="13.469091"><ele>36.0</ele></trkpt>
      <trkpt lat="52.511492" lon="13.469420"><ele>36.5</ele></trkpt>
      <trkpt lat="52.512677" lon="13.469706"><ele>37.1</ele></trkpt>
      <trkpt lat="52.513875" lon="13.469948"><ele>37.6</ele></trkpt>
      <trkpt lat="52.515085" lon="13.470146"><ele>38.2</ele></trkpt>
      <trkpt lat="52.516305" lon="13.470301"><ele>38.7</ele></trkpt>
      <trkpt lat="52.517532" lon="13.470412"><ele>39.1</ele></trkpt>
      <trkpt lat="52.518764" lon="13.470478"><ele>39.6</ele></trkpt>
      <trkpt lat="52.520000" lon="13.470500"><ele>40.0</ele></trkpt>
    </trkseg>
  </trk>
</gpx>