<?xml version="1.0" encoding="UTF-8"?>
 <gpx creator="Garmin Connect" version="1.1"
	 xsi:schemaLocation="http://www.topografix.com/GPX/1/1 http://www.topografix.com/GPX/11.xsd"
	 xmlns:ns3="http://www.garmin.com/xmlschemas/TrackPointExtension/v1"
	 xmlns="http://www.topografix.com/GPX/1/1"
	 xmlns:xsi="http://www.w3.org/2001/XMLSchema-instance" xmlns:ns2="http://www.garmin.com/xmlschemas/GpxExtensions/v3">
	 <metadata>
		<name>PKO Cracovia Royal Half Marathon 2025 - 21.098 km</name>
		 <link href="https://www.goandrace.com">
		 <text>Garmin Connect</text>
		 </link>
	 <time>2026-09-21T11:24:54</time>
	 </metadata>
	 <trk>
		 <name>PKO Cracovia Royal Half Marathon 2025 - 21.098 km</name>
		 <trkseg>
			 <trkpt lat="50.0693" lon="19.98675">
				 <ele>200.2</ele>
			 </trkpt>
			 <trkpt lat="50.06903" lon="19.98725">
				 <ele>200.1</ele>
			 </trkpt>
			 <trkpt lat="50.0689" lon="19.98744">
				 <ele>200.1</ele>
			 </trkpt>
			 <trkpt lat="50.06855" lon="19.98787">
				 <ele>200.1</ele>
			 </trkpt>
			 <trkpt lat="50.06834" lon="19.98808">
				 <ele>200.1</ele>
			 </trkpt>
			 <trkpt lat="50.0684" lon="19.98823">
				 <ele>200.1</ele>
			 </trkpt>
			 <trkpt lat="50.06832" lon="19.9883">
				 <ele>200</ele>
			 </trkpt>
			 <trkpt lat="50.06823" lon="19.98837">
				 <ele>200</ele>
			 </trkpt>
			 <trkpt lat="50.06797" lon="19.9885">
				 <ele>199.9</ele>
			 </trkpt>
			 <trkpt lat="50.06772" lon="19.9886">
				 <ele>199.8</ele>
			 </trkpt>
			 <trkpt lat="50.0676" lon="19.98863">
				 <ele>199.7</ele>
			 </trkpt>
			 <trkpt lat="50.066885" lon="19.988705">
				 <ele>199.6</ele>
			 </trkpt>
			 <trkpt lat="50.06617" lon="19.98878">
				 <ele>199.6</ele>
			 </trkpt>
			 <trkpt lat="50.06541" lon="19.98891">
				 <ele>199.6</ele>
			 </trkpt>
			 <trkpt lat="50.065" lon="19.98902">
				 <ele>199.7</ele>
			 </trkpt>
			 <trkpt lat="50.06459" lon="19.9892">
				 <ele>200.2</ele>
			 </trkpt>
			 <trkpt lat="50.06443" lon="19.98929">
				 <ele>200.7</ele>
			 </trkpt>
			 <trkpt lat="50.06425" lon="19.98827">
				 <ele>201.4</ele>
			 </trkpt>
			 <trkpt lat="50.064053" lon="19.98731">
				 <ele>202</ele>
			 </trkpt>
			 <trkpt lat="50.063857" lon="19.98635">
				 <ele>202.6</ele>
			 </trkpt>
			 <trkpt lat="50.06366" lon="19.98539">
				 <ele>203</ele>
			 </trkpt>
			 <trkpt lat="50.06346" lon="19.98469">
				 <ele>203.3</ele>
			 </trkpt>
			 <trkpt lat="50.06326" lon="19.98418">
				 <ele>203.5</ele>
			 </trkpt>
			 <trkpt lat="50.06286" lon="19.983385">
				 <ele>203.5</ele>
			 </trkpt>
			 <trkpt lat="50.06246" lon="19.98259">
				 <ele>203.6</ele>
			 </trkpt>
			 <trkpt lat="50.061998" lon="19.98162">
				 <ele>203.5</ele>
			 </trkpt>
			 <trkpt lat="50.061536" lon="19.98065">
				 <ele>203.1</ele>
			 </trkpt>
			 <trkpt lat="50.061074" lon="19.97968">
				 <ele>202.5</ele>
			 </trkpt>
			 <trkpt lat="50.060612" lon="19.97871">
				 <ele>201.9</ele>
			 </trkpt>
			 <trkpt lat="50.06015" lon="19.97774">
				 <ele>201.3</ele>
			 </trkpt>
			 <trkpt lat="50.05997" lon="19.97725">
				 <ele>200.7</ele>
			 </trkpt>
			 <trkpt lat="50.05988" lon="19.97695">
				 <ele>200.5</ele>
			 </trkpt>
			 <trkpt lat="50.05981" lon="19.97667">
				 <ele>200.3</ele>
			 </trkpt>
			 <trkpt lat="50.05971" lon="19.97605">
				 <ele>200.3</ele>
			 </trkpt>
			 <trkpt lat="50.05965" lon="19.97543">
				 <ele>200.4</ele>
			 </trkpt>
			 <trkpt lat="50.05965" lon="19.97497">
				 <ele>200.5</ele>
			 </trkpt>
			 <trkpt lat="50.05969" lon="19.97424">
				 <ele>200.6</ele>
			 </trkpt>
			 <trkpt lat="50.05972" lon="19.97403">
				 <ele>200.8</ele>
			 </trkpt>
			 <trkpt lat="50.060015" lon="19.97286">
				 <ele>201</ele>
			 </trkpt>
			 <trkpt lat="50.06031" lon="19.97169">
				 <ele>201.2</ele>
			 </trkpt>
			 <trkpt lat="50.06056" lon="19.97059">
				 <ele>201.4</ele>
			 </trkpt>
			 <trkpt lat="50.06067" lon="19.97061">
				 <ele>201.5</ele>
			 </trkpt>
			 <trkpt lat="50.061155" lon="19.970505">
				 <ele>201.7</ele>
			 </trkpt>
			 <trkpt lat="50.06164" lon="19.9704">
				 <ele>201.9</ele>
			 </trkpt>
			 <trkpt lat="50.06181" lon="19.9704">
				 <ele>202</ele>
			 </trkpt>
			 <trkpt lat="50.06182" lon="19.97034">
				 <ele>202.1</ele>
			 </trkpt>
			 <trkpt lat="50.06186" lon="19.9703">
				 <ele>202.2</ele>
			 </trkpt>
			 <trkpt lat="50.0619" lon="19.97031">
				 <ele>202.3</ele>
			 </trkpt>
			 <trkpt lat="50.06192" lon="19.97035">
				 <ele>202.4</ele>
			 </trkpt>
			 <trkpt lat="50.06212" lon="19.97029">
				 <ele>202.5</ele>
			 </trkpt>
			 <trkpt lat="50.0629" lon="19.9701">
				 <ele>202.6</ele>
			 </trkpt>
			 <trkpt lat="50.06357" lon="19.96999">
				 <ele>202.9</ele>
			 </trkpt>
			 <trkpt lat="50.06434" lon="19.9699">
				 <ele>203.2</ele>
			 </trkpt>
			 <trkpt lat="50.065025" lon="19.96984">
				 <ele>203.5</ele>
			 </trkpt>
			 <trkpt lat="50.06571" lon="19.96978">
				 <ele>203.9</ele>
			 </trkpt>
			 <trkpt lat="50.06644" lon="19.96974">
				 <ele>204.3</ele>
			 </trkpt>
			 <trkpt lat="50.06644" lon="19.96875">
				 <ele>204.6</ele>
			 </trkpt>
			 <trkpt lat="50.06646" lon="19.967583">
				 <ele>205</ele>
			 </trkpt>
			 <trkpt lat="50.06648" lon="19.966417">
				 <ele>205.4</ele>
			 </trkpt>
			 <trkpt lat="50.0665" lon="19.96525">
				 <ele>205.9</ele>
			 </trkpt>
			 <trkpt lat="50.06647" lon="19.96478">
				 <ele>206.5</ele>
			 </trkpt>
			 <trkpt lat="50.06637" lon="19.96406">
				 <ele>206.9</ele>
			 </trkpt>
			 <trkpt lat="50.06617" lon="19.962725">
				 <ele>207.1</ele>
			 </trkpt>
			 <trkpt lat="50.06597" lon="19.96139">
				 <ele>207.3</ele>
			 </trkpt>
			 <trkpt lat="50.06574" lon="19.96062">
				 <ele>207.4</ele>
			 </trkpt>
			 <trkpt lat="50.06533" lon="19.95972">
				 <ele>207.6</ele>
			 </trkpt>
			 <trkpt lat="50.06527" lon="19.95946">
				 <ele>208</ele>
			 </trkpt>
			 <trkpt lat="50.0653" lon="19.95944">
				 <ele>208.3</ele>
			 </trkpt>
			 <trkpt lat="50.06529" lon="19.95928">
				 <ele>208.5</ele>
			 </trkpt>
			 <trkpt lat="50.06531" lon="19.95879">
				 <ele>208.6</ele>
			 </trkpt>
			 <trkpt lat="50.06545" lon="19.95759">
				 <ele>208.6</ele>
			 </trkpt>
			 <trkpt lat="50.06549" lon="19.95699">
				 <ele>208.6</ele>
			 </trkpt>
			 <trkpt lat="50.06521" lon="19.95705">
				 <ele>208.7</ele>
			 </trkpt>
			 <trkpt lat="50.0646" lon="19.95725">
				 <ele>209</ele>
			 </trkpt>
			 <trkpt lat="50.06457" lon="19.95725">
				 <ele>209.4</ele>
			 </trkpt>
			 <trkpt lat="50.06454" lon="19.95721">
				 <ele>209.8</ele>
			 </trkpt>
			 <trkpt lat="50.064235" lon="19.956425">
				 <ele>210.1</ele>
			 </trkpt>
			 <trkpt lat="50.06393" lon="19.95564">
				 <ele>210.3</ele>
			 </trkpt>
			 <trkpt lat="50.06376" lon="19.95514">
				 <ele>210.5</ele>
			 </trkpt>
			 <trkpt lat="50.06346" lon="19.953837">
				 <ele>210.6</ele>
			 </trkpt>
			 <trkpt lat="50.06316" lon="19.952533">
				 <ele>210.8</ele>
			 </trkpt>
			 <trkpt lat="50.06286" lon="19.95123">
				 <ele>210.9</ele>
			 </trkpt>
			 <trkpt lat="50.062535" lon="19.950515">
				 <ele>211.1</ele>
			 </trkpt>
			 <trkpt lat="50.06221" lon="19.9498">
				 <ele>211.3</ele>
			 </trkpt>
			 <trkpt lat="50.06196" lon="19.9492">
				 <ele>211.5</ele>
			 </trkpt>
			 <trkpt lat="50.061695" lon="19.94854">
				 <ele>211.6</ele>
			 </trkpt>
			 <trkpt lat="50.06143" lon="19.94788">
				 <ele>211.7</ele>
			 </trkpt>
			 <trkpt lat="50.06114" lon="19.94706">
				 <ele>211.8</ele>
			 </trkpt>
			 <trkpt lat="50.0611" lon="19.94681">
				 <ele>212</ele>
			 </trkpt>
			 <trkpt lat="50.06108" lon="19.94631">
				 <ele>212.3</ele>
			 </trkpt>
			 <trkpt lat="50.061075" lon="19.945515">
				 <ele>212.6</ele>
			 </trkpt>
			 <trkpt lat="50.06107" lon="19.94472">
				 <ele>213</ele>
			 </trkpt>
			 <trkpt lat="50.06116" lon="19.94411">
				 <ele>213.5</ele>
			 </trkpt>
			 <trkpt lat="50.06136" lon="19.94316">
				 <ele>213.8</ele>
			 </trkpt>
			 <trkpt lat="50.06143" lon="19.94276">
				 <ele>214.2</ele>
			 </trkpt>
			 <trkpt lat="50.06143" lon="19.94254">
				 <ele>214.5</ele>
			 </trkpt>
			 <trkpt lat="50.06138" lon="19.94209">
				 <ele>214.8</ele>
			 </trkpt>
			 <trkpt lat="50.06127" lon="19.94181">
				 <ele>215.1</ele>
			 </trkpt>
			 <trkpt lat="50.061517" lon="19.940957">
				 <ele>215.4</ele>
			 </trkpt>
			 <trkpt lat="50.061763" lon="19.940103">
				 <ele>215.5</ele>
			 </trkpt>
			 <trkpt lat="50.06201" lon="19.93925">
				 <ele>215.6</ele>
			 </trkpt>
			 <trkpt lat="50.06201" lon="19.93888">
				 <ele>215.7</ele>
			 </trkpt>
			 <trkpt lat="50.061325" lon="19.938325">
				 <ele>215.7</ele>
			 </trkpt>
			 <trkpt lat="50.06064" lon="19.93777">
				 <ele>215.7</ele>
			 </trkpt>
			 <trkpt lat="50.06062" lon="19.93772">
				 <ele>215.7</ele>
			 </trkpt>
			 <trkpt lat="50.06063" lon="19.93764">
				 <ele>215.5</ele>
			 </trkpt>
			 <trkpt lat="50.06016" lon="19.93768">
				 <ele>215.3</ele>
			 </trkpt>
			 <trkpt lat="50.059327" lon="19.93781">
				 <ele>214.9</ele>
			 </trkpt>
			 <trkpt lat="50.058493" lon="19.93794">
				 <ele>214.5</ele>
			 </trkpt>
			 <trkpt lat="50.05766" lon="19.93807">
				 <ele>214.1</ele>
			 </trkpt>
			 <trkpt lat="50.056805" lon="19.938155">
				 <ele>213.6</ele>
			 </trkpt>
			 <trkpt lat="50.05595" lon="19.93824">
				 <ele>213.1</ele>
			 </trkpt>
			 <trkpt lat="50.05549" lon="19.93832">
				 <ele>212.6</ele>
			 </trkpt>
			 <trkpt lat="50.05503" lon="19.9384">
				 <ele>212.3</ele>
			 </trkpt>
			 <trkpt lat="50.05475" lon="19.93847">
				 <ele>211.9</ele>
			 </trkpt>
			 <trkpt lat="50.05473" lon="19.93832">
				 <ele>211.6</ele>
			 </trkpt>
			 <trkpt lat="50.05466" lon="19.93819">
				 <ele>211.5</ele>
			 </trkpt>
			 <trkpt lat="50.05489" lon="19.9379">
				 <ele>211.3</ele>
			 </trkpt>
			 <trkpt lat="50.05524" lon="19.93757">
				 <ele>211.1</ele>
			 </trkpt>
			 <trkpt lat="50.05529" lon="19.93747">
				 <ele>210.8</ele>
			 </trkpt>
			 <trkpt lat="50.05535" lon="19.93728">
				 <ele>210.5</ele>
			 </trkpt>
			 <trkpt lat="50.05545" lon="19.93653">
				 <ele>209.9</ele>
			 </trkpt>
			 <trkpt lat="50.0555" lon="19.93606">
				 <ele>209.5</ele>
			 </trkpt>
			 <trkpt lat="50.0555" lon="19.93587">
				 <ele>208.8</ele>
			 </trkpt>
			 <trkpt lat="50.05548" lon="19.93565">
				 <ele>208.2</ele>
			 </trkpt>
			 <trkpt lat="50.055245" lon="19.934575">
				 <ele>207.6</ele>
			 </trkpt>
			 <trkpt lat="50.05501" lon="19.9335">
				 <ele>207</ele>
			 </trkpt>
			 <trkpt lat="50.05502" lon="19.93329">
				 <ele>206.4</ele>
			 </trkpt>
			 <trkpt lat="50.0553" lon="19.9321">
				 <ele>205.8</ele>
			 </trkpt>
			 <trkpt lat="50.0553" lon="19.932">
				 <ele>205.4</ele>
			 </trkpt>
			 <trkpt lat="50.05557" lon="19.930875">
				 <ele>205</ele>
			 </trkpt>
			 <trkpt lat="50.05584" lon="19.92975">
				 <ele>204.8</ele>
			 </trkpt>
			 <trkpt lat="50.05606" lon="19.92893">
				 <ele>204.7</ele>
			 </trkpt>
			 <trkpt lat="50.05611" lon="19.92882">
				 <ele>204.6</ele>
			 </trkpt>
			 <trkpt lat="50.05577" lon="19.92839">
				 <ele>204.6</ele>
			 </trkpt>
			 <trkpt lat="50.05541" lon="19.92783">
				 <ele>204.6</ele>
			 </trkpt>
			 <trkpt lat="50.05529" lon="19.92757">
				 <ele>204.5</ele>
			 </trkpt>
			 <trkpt lat="50.05605" lon="19.92722">
				 <ele>204.5</ele>
			 </trkpt>
			 <trkpt lat="50.05688" lon="19.92677">
				 <ele>204.5</ele>
			 </trkpt>
			 <trkpt lat="50.0577" lon="19.92636">
				 <ele>204.5</ele>
			 </trkpt>
			 <trkpt lat="50.05853" lon="19.925825">
				 <ele>204.6</ele>
			 </trkpt>
			 <trkpt lat="50.05936" lon="19.92529">
				 <ele>204.7</ele>
			 </trkpt>
			 <trkpt lat="50.060015" lon="19.9249">
				 <ele>204.8</ele>
			 </trkpt>
			 <trkpt lat="50.06067" lon="19.92451">
				 <ele>205</ele>
			 </trkpt>
			 <trkpt lat="50.06095" lon="19.92436">
				 <ele>205.1</ele>
			 </trkpt>
			 <trkpt lat="50.06107" lon="19.9242">
				 <ele>205.2</ele>
			 </trkpt>
			 <trkpt lat="50.06109" lon="19.92409">
				 <ele>205.3</ele>
			 </trkpt>
			 <trkpt lat="50.06104" lon="19.92399">
				 <ele>205.3</ele>
			 </trkpt>
			 <trkpt lat="50.06101" lon="19.92397">
				 <ele>205.1</ele>
			 </trkpt>
			 <trkpt lat="50.0609" lon="19.92396">
				 <ele>204.9</ele>
			 </trkpt>
			 <trkpt lat="50.06045" lon="19.92419">
				 <ele>204.8</ele>
			 </trkpt>
			 <trkpt lat="50.06" lon="19.92442">
				 <ele>204.5</ele>
			 </trkpt>
			 <trkpt lat="50.05929" lon="19.92484">
				 <ele>204.3</ele>
			 </trkpt>
			 <trkpt lat="50.05924" lon="19.92451">
				 <ele>204</ele>
			 </trkpt>
			 <trkpt lat="50.05927" lon="19.92402">
				 <ele>203.7</ele>
			 </trkpt>
			 <trkpt lat="50.05922" lon="19.92383">
				 <ele>203.5</ele>
			 </trkpt>
			 <trkpt lat="50.05924" lon="19.92328">
				 <ele>203.4</ele>
			 </trkpt>
			 <trkpt lat="50.05928" lon="19.92317">
				 <ele>203.2</ele>
			 </trkpt>
			 <trkpt lat="50.059478" lon="19.92189">
				 <ele>203.1</ele>
			 </trkpt>
			 <trkpt lat="50.059676" lon="19.92061">
				 <ele>203.1</ele>
			 </trkpt>
			 <trkpt lat="50.059875" lon="19.91933">
				 <ele>203.1</ele>
			 </trkpt>
			 <trkpt lat="50.060073" lon="19.91805">
				 <ele>203.1</ele>
			 </trkpt>
			 <trkpt lat="50.060271" lon="19.91677">
				 <ele>203.2</ele>
			 </trkpt>
			 <trkpt lat="50.060469" lon="19.91549">
				 <ele>203.3</ele>
			 </trkpt>
			 <trkpt lat="50.060667" lon="19.91421">
				 <ele>203.4</ele>
			 </trkpt>
			 <trkpt lat="50.060865" lon="19.91293">
				 <ele>203.5</ele>
			 </trkpt>
			 <trkpt lat="50.061064" lon="19.91165">
				 <ele>203.5</ele>
			 </trkpt>
			 <trkpt lat="50.061262" lon="19.91037">
				 <ele>203.6</ele>
			 </trkpt>
			 <trkpt lat="50.06146" lon="19.90909">
				 <ele>203.7</ele>
			 </trkpt>
			 <trkpt lat="50.061658" lon="19.90781">
				 <ele>203.8</ele>
			 </trkpt>
			 <trkpt lat="50.061856" lon="19.90653">
				 <ele>203.9</ele>
			 </trkpt>
			 <trkpt lat="50.062054" lon="19.90525">
				 <ele>204</ele>
			 </trkpt>
			 <trkpt lat="50.062252" lon="19.90397">
				 <ele>204</ele>
			 </trkpt>
			 <trkpt lat="50.06245" lon="19.90269">
				 <ele>204.1</ele>
			 </trkpt>
			 <trkpt lat="50.06247" lon="19.90248">
				 <ele>204.3</ele>
			 </trkpt>
			 <trkpt lat="50.06246" lon="19.90244">
				 <ele>204.5</ele>
			 </trkpt>
			 <trkpt lat="50.06192" lon="19.90207">
				 <ele>204.6</ele>
			 </trkpt>
			 <trkpt lat="50.06138" lon="19.9017">
				 <ele>204.7</ele>
			 </trkpt>
			 <trkpt lat="50.060925" lon="19.901335">
				 <ele>204.8</ele>
			 </trkpt>
			 <trkpt lat="50.06047" lon="19.90097">
				 <ele>204.9</ele>
			 </trkpt>
			 <trkpt lat="50.06021" lon="19.90114">
				 <ele>204.9</ele>
			 </trkpt>
			 <trkpt lat="50.06018" lon="19.90119">
				 <ele>204.9</ele>
			 </trkpt>
			 <trkpt lat="50.05984" lon="19.902003">
				 <ele>205</ele>
			 </trkpt>
			 <trkpt lat="50.0595" lon="19.902817">
				 <ele>205.1</ele>
			 </trkpt>
			 <trkpt lat="50.05916" lon="19.90363">
				 <ele>205.2</ele>
			 </trkpt>
			 <trkpt lat="50.058695" lon="19.9044">
				 <ele>205.2</ele>
			 </trkpt>
			 <trkpt lat="50.05823" lon="19.90517">
				 <ele>205</ele>
			 </trkpt>
			 <trkpt lat="50.057803" lon="19.905847">
				 <ele>204.8</ele>
			 </trkpt>
			 <trkpt lat="50.057377" lon="19.906523">
				 <ele>204.7</ele>
			 </trkpt>
			 <trkpt lat="50.05695" lon="19.9072">
				 <ele>204.6</ele>
			 </trkpt>
			 <trkpt lat="50.057" lon="19.90788">
				 <ele>204.5</ele>
			 </trkpt>
			 <trkpt lat="50.057183" lon="19.909153">
				 <ele>204.4</ele>
			 </trkpt>
			 <trkpt lat="50.057365" lon="19.910427">
				 <ele>204.3</ele>
			 </trkpt>
			 <trkpt lat="50.057548" lon="19.9117">
				 <ele>204.1</ele>
			 </trkpt>
			 <trkpt lat="50.05773" lon="19.912973">
				 <ele>203.9</ele>
			 </trkpt>
			 <trkpt lat="50.057913" lon="19.914246">
				 <ele>203.6</ele>
			 </trkpt>
			 <trkpt lat="50.058095" lon="19.91552">
				 <ele>203.4</ele>
			 </trkpt>
			 <trkpt lat="50.058278" lon="19.916793">
				 <ele>203.3</ele>
			 </trkpt>
			 <trkpt lat="50.05846" lon="19.918067">
				 <ele>203.2</ele>
			 </trkpt>
			 <trkpt lat="50.058643" lon="19.91934">
				 <ele>203.1</ele>
			 </trkpt>
			 <trkpt lat="50.058825" lon="19.920613">
				 <ele>203</ele>
			 </trkpt>
			 <trkpt lat="50.059008" lon="19.921887">
				 <ele>203</ele>
			 </trkpt>
			 <trkpt lat="50.05919" lon="19.92316">
				 <ele>203.1</ele>
			 </trkpt>
			 <trkpt lat="50.05924" lon="19.92328">
				 <ele>203.2</ele>
			 </trkpt>
			 <trkpt lat="50.05922" lon="19.92383">
				 <ele>203.4</ele>
			 </trkpt>
			 <trkpt lat="50.05927" lon="19.92402">
				 <ele>203.5</ele>
			 </trkpt>
			 <trkpt lat="50.05924" lon="19.92451">
				 <ele>203.7</ele>
			 </trkpt>
			 <trkpt lat="50.05929" lon="19.92484">
				 <ele>203.9</ele>
			 </trkpt>
			 <trkpt lat="50.05872" lon="19.92524">
				 <ele>204.1</ele>
			 </trkpt>
			 <trkpt lat="50.05815" lon="19.92564">
				 <ele>204.3</ele>
			 </trkpt>
			 <trkpt lat="50.05746" lon="19.92605">
				 <ele>204.5</ele>
			 </trkpt>
			 <trkpt lat="50.05677" lon="19.92646">
				 <ele>204.7</ele>
			 </trkpt>
			 <trkpt lat="50.05597" lon="19.92687">
				 <ele>204.9</ele>
			 </trkpt>
			 <trkpt lat="50.05552" lon="19.92717">
				 <ele>204.9</ele>
			 </trkpt>
			 <trkpt lat="50.05521" lon="19.92742">
				 <ele>204.9</ele>
			 </trkpt>
			 <trkpt lat="50.05514" lon="19.92758">
				 <ele>204.8</ele>
			 </trkpt>
			 <trkpt lat="50.054417" lon="19.928133">
				 <ele>204.6</ele>
			 </trkpt>
			 <trkpt lat="50.053693" lon="19.928687">
				 <ele>204.5</ele>
			 </trkpt>
			 <trkpt lat="50.05297" lon="19.92924">
				 <ele>204.3</ele>
			 </trkpt>
			 <trkpt lat="50.05288" lon="19.92937">
				 <ele>204</ele>
			 </trkpt>
			 <trkpt lat="50.05224" lon="19.92985">
				 <ele>203.6</ele>
			 </trkpt>
			 <trkpt lat="50.05155" lon="19.930395">
				 <ele>203.3</ele>
			 </trkpt>
			 <trkpt lat="50.05086" lon="19.93094">
				 <ele>202.9</ele>
			 </trkpt>
			 <trkpt lat="50.05032" lon="19.93139">
				 <ele>202.7</ele>
			 </trkpt>
			 <trkpt lat="50.04987" lon="19.9318">
				 <ele>202.7</ele>
			 </trkpt>
			 <trkpt lat="50.04943" lon="19.93215">
				 <ele>202.7</ele>
			 </trkpt>
			 <trkpt lat="50.048857" lon="19.93259">
				 <ele>202.7</ele>
			 </trkpt>
			 <trkpt lat="50.048283" lon="19.93303">
				 <ele>202.8</ele>
			 </trkpt>
			 <trkpt lat="50.04771" lon="19.93347">
				 <ele>203</ele>
			 </trkpt>
			 <trkpt lat="50.04706" lon="19.93391">
				 <ele>203.2</ele>
			 </trkpt>
			 <trkpt lat="50.04659" lon="19.93414">
				 <ele>203.5</ele>
			 </trkpt>
			 <trkpt lat="50.04637" lon="19.93422">
				 <ele>203.8</ele>
			 </trkpt>
			 <trkpt lat="50.045538" lon="19.93443">
				 <ele>204.2</ele>
			 </trkpt>
			 <trkpt lat="50.044705" lon="19.93464">
				 <ele>204.5</ele>
			 </trkpt>
			 <trkpt lat="50.043873" lon="19.93485">
				 <ele>204.6</ele>
			 </trkpt>
			 <trkpt lat="50.04304" lon="19.93506">
				 <ele>204.6</ele>
			 </trkpt>
			 <trkpt lat="50.04292" lon="19.93532">
				 <ele>204.6</ele>
			 </trkpt>
			 <trkpt lat="50.04291" lon="19.93538">
				 <ele>204.6</ele>
			 </trkpt>
			 <trkpt lat="50.04295" lon="19.93557">
				 <ele>204.6</ele>
			 </trkpt>
			 <trkpt lat="50.04307" lon="19.93568">
				 <ele>204.5</ele>
			 </trkpt>
			 <trkpt lat="50.04331" lon="19.93581">
				 <ele>204.3</ele>
			 </trkpt>
			 <trkpt lat="50.04345" lon="19.93592">
				 <ele>204.1</ele>
			 </trkpt>
			 <trkpt lat="50.04361" lon="19.9361">
				 <ele>203.9</ele>
			 </trkpt>
			 <trkpt lat="50.04375" lon="19.93638">
				 <ele>203.7</ele>
			 </trkpt>
			 <trkpt lat="50.04406" lon="19.93712">
				 <ele>203.6</ele>
			 </trkpt>
			 <trkpt lat="50.04412" lon="19.93737">
				 <ele>203.6</ele>
			 </trkpt>
			 <trkpt lat="50.04419" lon="19.93821">
				 <ele>203.7</ele>
			 </trkpt>
			 <trkpt lat="50.04431" lon="19.93876">
				 <ele>203.8</ele>
			 </trkpt>
			 <trkpt lat="50.04433" lon="19.93901">
				 <ele>204</ele>
			 </trkpt>
			 <trkpt lat="50.04429" lon="19.93963">
				 <ele>204</ele>
			 </trkpt>
			 <trkpt lat="50.04427" lon="19.93986">
				 <ele>204.1</ele>
			 </trkpt>
			 <trkpt lat="50.04418" lon="19.94013">
				 <ele>204.2</ele>
			 </trkpt>
			 <trkpt lat="50.04408" lon="19.94033">
				 <ele>204.3</ele>
			 </trkpt>
			 <trkpt lat="50.0436" lon="19.94099">
				 <ele>204.4</ele>
			 </trkpt>
			 <trkpt lat="50.04403" lon="19.94172">
				 <ele>204.2</ele>
			 </trkpt>
			 <trkpt lat="50.04407" lon="19.94187">
				 <ele>203.8</ele>
			 </trkpt>
			 <trkpt lat="50.04407" lon="19.94198">
				 <ele>203.4</ele>
			 </trkpt>
			 <trkpt lat="50.04412" lon="19.94198">
				 <ele>202.9</ele>
			 </trkpt>
			 <trkpt lat="50.04416" lon="19.94204">
				 <ele>202.5</ele>
			 </trkpt>
			 <trkpt lat="50.04423" lon="19.94287">
				 <ele>201.9</ele>
			 </trkpt>
			 <trkpt lat="50.04434" lon="19.94352">
				 <ele>201.5</ele>
			 </trkpt>
			 <trkpt lat="50.04441" lon="19.94349">
				 <ele>201.2</ele>
			 </trkpt>
			 <trkpt lat="50.04459" lon="19.94435">
				 <ele>200.8</ele>
			 </trkpt>
			 <trkpt lat="50.04483" lon="19.9451">
				 <ele>200.5</ele>
			 </trkpt>
			 <trkpt lat="50.045243" lon="19.946112">
				 <ele>200.1</ele>
			 </trkpt>
			 <trkpt lat="50.045655" lon="19.947125">
				 <ele>200</ele>
			 </trkpt>
			 <trkpt lat="50.046068" lon="19.948137">
				 <ele>200</ele>
			 </trkpt>
			 <trkpt lat="50.04648" lon="19.94915">
				 <ele>199.9</ele>
			 </trkpt>
			 <trkpt lat="50.04685" lon="19.94993">
				 <ele>199.8</ele>
			 </trkpt>
			 <trkpt lat="50.047373" lon="19.950908">
				 <ele>199.7</ele>
			 </trkpt>
			 <trkpt lat="50.047897" lon="19.951887">
				 <ele>199.6</ele>
			 </trkpt>
			 <trkpt lat="50.04842" lon="19.952865">
				 <ele>199.6</ele>
			 </trkpt>
			 <trkpt lat="50.048943" lon="19.953843">
				 <ele>199.8</ele>
			 </trkpt>
			 <trkpt lat="50.049467" lon="19.954822">
				 <ele>200</ele>
			 </trkpt>
			 <trkpt lat="50.04999" lon="19.9558">
				 <ele>200.2</ele>
			 </trkpt>
			 <trkpt lat="50.05021" lon="19.95626">
				 <ele>200.4</ele>
			 </trkpt>
			 <trkpt lat="50.05043" lon="19.957045">
				 <ele>200.5</ele>
			 </trkpt>
			 <trkpt lat="50.05065" lon="19.95783">
				 <ele>200.7</ele>
			 </trkpt>
			 <trkpt lat="50.05065" lon="19.95794">
				 <ele>200.9</ele>
			 </trkpt>
			 <trkpt lat="50.0504" lon="19.95777">
				 <ele>201.1</ele>
			 </trkpt>
			 <trkpt lat="50.05036" lon="19.9579">
				 <ele>201.3</ele>
			 </trkpt>
			 <trkpt lat="50.05032" lon="19.95788">
				 <ele>201.5</ele>
			 </trkpt>
			 <trkpt lat="50.05028" lon="19.95788">
				 <ele>201.5</ele>
			 </trkpt>
			 <trkpt lat="50.05014" lon="19.95832">
				 <ele>201.5</ele>
			 </trkpt>
			 <trkpt lat="50.05012" lon="19.95846">
				 <ele>201.4</ele>
			 </trkpt>
			 <trkpt lat="50.05013" lon="19.95855">
				 <ele>201.3</ele>
			 </trkpt>
			 <trkpt lat="50.05039" lon="19.95918">
				 <ele>201.2</ele>
			 </trkpt>
			 <trkpt lat="50.05042" lon="19.95936">
				 <ele>201.1</ele>
			 </trkpt>
			 <trkpt lat="50.05047" lon="19.96003">
				 <ele>201</ele>
			 </trkpt>
			 <trkpt lat="50.05052" lon="19.96034">
				 <ele>201</ele>
			 </trkpt>
			 <trkpt lat="50.05051" lon="19.96049">
				 <ele>201</ele>
			 </trkpt>
			 <trkpt lat="50.05061" lon="19.96052">
				 <ele>201</ele>
			 </trkpt>
			 <trkpt lat="50.05119" lon="19.96087">
				 <ele>201</ele>
			 </trkpt>
			 <trkpt lat="50.05131" lon="19.96098">
				 <ele>201</ele>
			 </trkpt>
			 <trkpt lat="50.05137" lon="19.96109">
				 <ele>201</ele>
			 </trkpt>
			 <trkpt lat="50.05143" lon="19.96134">
				 <ele>201</ele>
			 </trkpt>
			 <trkpt lat="50.05153" lon="19.962075">
				 <ele>201</ele>
			 </trkpt>
			 <trkpt lat="50.05163" lon="19.96281">
				 <ele>201.1</ele>
			 </trkpt>
			 <trkpt lat="50.0516" lon="19.96292">
				 <ele>201.2</ele>
			 </trkpt>
			 <trkpt lat="50.05146" lon="19.96302">
				 <ele>201.3</ele>
			 </trkpt>
			 <trkpt lat="50.05109" lon="19.96315">
				 <ele>201.3</ele>
			 </trkpt>
			 <trkpt lat="50.05096" lon="19.96315">
				 <ele>201.3</ele>
			 </trkpt>
			 <trkpt lat="50.0508" lon="19.96306">
				 <ele>201.3</ele>
			 </trkpt>
			 <trkpt lat="50.0507" lon="19.96304">
				 <ele>201.3</ele>
			 </trkpt>
			 <trkpt lat="50.05055" lon="19.96307">
				 <ele>201.3</ele>
			 </trkpt>
			 <trkpt lat="50.05044" lon="19.96314">
				 <ele>201.2</ele>
			 </trkpt>
			 <trkpt lat="50.05044" lon="19.96324">
				 <ele>201.1</ele>
			 </trkpt>
			 <trkpt lat="50.05037" lon="19.96335">
				 <ele>201</ele>
			 </trkpt>
			 <trkpt lat="50.05033" lon="19.96344">
				 <ele>200.8</ele>
			 </trkpt>
			 <trkpt lat="50.05004" lon="19.96445">
				 <ele>200.6</ele>
			 </trkpt>
			 <trkpt lat="50.049815" lon="19.965355">
				 <ele>200.5</ele>
			 </trkpt>
			 <trkpt lat="50.04959" lon="19.96626">
				 <ele>200.4</ele>
			 </trkpt>
			 <trkpt lat="50.04941" lon="19.96688">
				 <ele>200.3</ele>
			 </trkpt>
			 <trkpt lat="50.04924" lon="19.9674">
				 <ele>200.2</ele>
			 </trkpt>
			 <trkpt lat="50.04921" lon="19.96757">
				 <ele>200.1</ele>
			 </trkpt>
			 <trkpt lat="50.04912" lon="19.96778">
				 <ele>200</ele>
			 </trkpt>
			 <trkpt lat="50.04895" lon="19.96806">
				 <ele>200</ele>
			 </trkpt>
			 <trkpt lat="50.04893" lon="19.96822">
				 <ele>200</ele>
			 </trkpt>
			 <trkpt lat="50.04888" lon="19.96829">
				 <ele>200</ele>
			 </trkpt>
			 <trkpt lat="50.04913" lon="19.96874">
				 <ele>200</ele>
			 </trkpt>
			 <trkpt lat="50.04925" lon="19.96837">
				 <ele>200</ele>
			 </trkpt>
			 <trkpt lat="50.04932" lon="19.96833">
				 <ele>200</ele>
			 </trkpt>
			 <trkpt lat="50.05001" lon="19.96865">
				 <ele>200.1</ele>
			 </trkpt>
			 <trkpt lat="50.05035" lon="19.96885">
				 <ele>200</ele>
			 </trkpt>
			 <trkpt lat="50.05047" lon="19.96888">
				 <ele>200.1</ele>
			 </trkpt>
			 <trkpt lat="50.05057" lon="19.96885">
				 <ele>200.2</ele>
			 </trkpt>
			 <trkpt lat="50.0507" lon="19.96966">
				 <ele>200.3</ele>
			 </trkpt>
			 <trkpt lat="50.05083" lon="19.97047">
				 <ele>200.4</ele>
			 </trkpt>
			 <trkpt lat="50.05094" lon="19.9711">
				 <ele>200.5</ele>
			 </trkpt>
			 <trkpt lat="50.050985" lon="19.971825">
				 <ele>200.5</ele>
			 </trkpt>
			 <trkpt lat="50.05105" lon="19.97255">
				 <ele>200.6</ele>
			 </trkpt>
			 <trkpt lat="50.05109" lon="19.97283">
				 <ele>200.7</ele>
			 </trkpt>
			 <trkpt lat="50.05118" lon="19.97316">
				 <ele>200.8</ele>
			 </trkpt>
			 <trkpt lat="50.05148" lon="19.97388">
				 <ele>200.7</ele>
			 </trkpt>
			 <trkpt lat="50.05155" lon="19.97402">
				 <ele>200.8</ele>
			 </trkpt>
			 <trkpt lat="50.05168" lon="19.97442">
				 <ele>200.7</ele>
			 </trkpt>
			 <trkpt lat="50.05185" lon="19.97511">
				 <ele>200.5</ele>
			 </trkpt>
			 <trkpt lat="50.05197" lon="19.97584">
				 <ele>200.4</ele>
			 </trkpt>
			 <trkpt lat="50.05208" lon="19.97717">
				 <ele>200.2</ele>
			 </trkpt>
			 <trkpt lat="50.05188" lon="19.97726">
				 <ele>200</ele>
			 </trkpt>
			 <trkpt lat="50.05133" lon="19.977927">
				 <ele>199.9</ele>
			 </trkpt>
			 <trkpt lat="50.05078" lon="19.978593">
				 <ele>199.9</ele>
			 </trkpt>
			 <trkpt lat="50.05023" lon="19.97926">
				 <ele>200.3</ele>
			 </trkpt>
			 <trkpt lat="50.05017" lon="19.97941">
				 <ele>200.8</ele>
			 </trkpt>
			 <trkpt lat="50.05015" lon="19.97969">
				 <ele>201.5</ele>
			 </trkpt>
			 <trkpt lat="50.05029" lon="19.98008">
				 <ele>202.2</ele>
			 </trkpt>
			 <trkpt lat="50.05078" lon="19.97957">
				 <ele>202.8</ele>
			 </trkpt>
			 <trkpt lat="50.051452" lon="19.978972">
				 <ele>203.5</ele>
			 </trkpt>
			 <trkpt lat="50.052123" lon="19.978373">
				 <ele>204.2</ele>
			 </trkpt>
			 <trkpt lat="50.052795" lon="19.977775">
				 <ele>204.7</ele>
			 </trkpt>
			 <trkpt lat="50.053467" lon="19.977177">
				 <ele>205.1</ele>
			 </trkpt>
			 <trkpt lat="50.054138" lon="19.976578">
				 <ele>205.3</ele>
			 </trkpt>
			 <trkpt lat="50.05481" lon="19.97598">
				 <ele>205.3</ele>
			 </trkpt>
			 <trkpt lat="50.0552" lon="19.97565">
				 <ele>204.9</ele>
			 </trkpt>
			 <trkpt lat="50.05541" lon="19.97552">
				 <ele>204.4</ele>
			 </trkpt>
			 <trkpt lat="50.05574" lon="19.97539">
				 <ele>203.7</ele>
			 </trkpt>
			 <trkpt lat="50.05607" lon="19.97533">
				 <ele>203.1</ele>
			 </trkpt>
			 <trkpt lat="50.056835" lon="19.97522">
				 <ele>202.5</ele>
			 </trkpt>
			 <trkpt lat="50.0576" lon="19.97511">
				 <ele>202</ele>
			 </trkpt>
			 <trkpt lat="50.0579" lon="19.9751">
				 <ele>201.5</ele>
			 </trkpt>
			 <trkpt lat="50.0581" lon="19.97514">
				 <ele>201.2</ele>
			 </trkpt>
			 <trkpt lat="50.05856" lon="19.97531">
				 <ele>201</ele>
			 </trkpt>
			 <trkpt lat="50.05936" lon="19.97568">
				 <ele>200.9</ele>
			 </trkpt>
			 <trkpt lat="50.05937" lon="19.97595">
				 <ele>200.9</ele>
			 </trkpt>
			 <trkpt lat="50.05947" lon="19.97656">
				 <ele>200.9</ele>
			 </trkpt>
			 <trkpt lat="50.05962" lon="19.97703">
				 <ele>200.9</ele>
			 </trkpt>
			 <trkpt lat="50.05975" lon="19.97734">
				 <ele>200.9</ele>
			 </trkpt>
			 <trkpt lat="50.060143" lon="19.978157">
				 <ele>201.1</ele>
			 </trkpt>
			 <trkpt lat="50.060537" lon="19.978973">
				 <ele>201.4</ele>
			 </trkpt>
			 <trkpt lat="50.06093" lon="19.97979">
				 <ele>201.7</ele>
			 </trkpt>
			 <trkpt lat="50.06114" lon="19.9803">
				 <ele>202.3</ele>
			 </trkpt>
			 <trkpt lat="50.06142" lon="19.98089">
				 <ele>202.8</ele>
			 </trkpt>
			 <trkpt lat="50.06175" lon="19.98148">
				 <ele>203.3</ele>
			 </trkpt>
			 <trkpt lat="50.06206" lon="19.98212">
				 <ele>203.6</ele>
			 </trkpt>
			 <trkpt lat="50.06237" lon="19.98276">
				 <ele>203.7</ele>
			 </trkpt>
			 <trkpt lat="50.062735" lon="19.98356">
				 <ele>203.7</ele>
			 </trkpt>
			 <trkpt lat="50.0631" lon="19.98436">
				 <ele>203.6</ele>
			 </trkpt>
			 <trkpt lat="50.06325" lon="19.98473">
				 <ele>203.5</ele>
			 </trkpt>
			 <trkpt lat="50.06341" lon="19.98522">
				 <ele>203.3</ele>
			 </trkpt>
			 <trkpt lat="50.06356" lon="19.98584">
				 <ele>202.9</ele>
			 </trkpt>
			 <trkpt lat="50.063685" lon="19.986655">
				 <ele>202.5</ele>
			 </trkpt>
			 <trkpt lat="50.06381" lon="19.98747">
				 <ele>201.7</ele>
			 </trkpt>
			 <trkpt lat="50.06394" lon="19.988355">
				 <ele>201</ele>
			 </trkpt>
			 <trkpt lat="50.06407" lon="19.98924">
				 <ele>200.4</ele>
			 </trkpt>
			 <trkpt lat="50.06416" lon="19.98939">
				 <ele>199.8</ele>
			 </trkpt>
			 <trkpt lat="50.06424" lon="19.98947">
				 <ele>199.6</ele>
			 </trkpt>
			 <trkpt lat="50.06435" lon="19.9895">
				 <ele>199.5</ele>
			 </trkpt>
			 <trkpt lat="50.06446" lon="19.98948">
				 <ele>199.5</ele>
			 </trkpt>
			 <trkpt lat="50.0649" lon="19.98928">
				 <ele>199.5</ele>
			 </trkpt>
			 <trkpt lat="50.06548" lon="19.9891">
				 <ele>199.5</ele>
			 </trkpt>
			 <trkpt lat="50.06619" lon="19.98901">
				 <ele>199.5</ele>
			 </trkpt>
			 <trkpt lat="50.0669" lon="19.98892">
				 <ele>199.5</ele>
			 </trkpt>
			 <trkpt lat="50.06761" lon="19.98883">
				 <ele>199.6</ele>
			 </trkpt>
			 <trkpt lat="50.06789" lon="19.98875">
				 <ele>199.7</ele>
			 </trkpt>
			 <trkpt lat="50.06824" lon="19.98858">
				 <ele>199.8</ele>
			 </trkpt>
			 <trkpt lat="50.06844" lon="19.98844">
				 <ele>200</ele>
			 </trkpt>
			 <trkpt lat="50.06871" lon="19.9882">
				 <ele>200.1</ele>
			 </trkpt>
			 <trkpt lat="50.06862" lon="19.98801">
				 <ele>200.3</ele>
			 </trkpt>
			 <trkpt lat="50.06895" lon="19.98763">
				 <ele>200.4</ele>
			 </trkpt>
			 <trkpt lat="50.0691" lon="19.98741">
				 <ele>200.5</ele>
			 </trkpt>
			 <trkpt lat="50.0694" lon="19.98685">
				 <ele>200.5</ele>
			 </trkpt>
			 <trkpt lat="50.0697" lon="19.98629">
				 <ele>200.5</ele>
			 </trkpt>
			 <trkpt lat="50.06988" lon="19.98591">
				 <ele>200.5</ele>
			 </trkpt>
			 <trkpt lat="50.07016" lon="19.98539">
				 <ele>200.6</ele>
			 </trkpt>
			 <trkpt lat="50.07027" lon="19.98554">
				 <ele>200.7</ele>
			 </trkpt>
			 <trkpt lat="50.0698" lon="19.986435">
				 <ele>200.7</ele>
			 </trkpt>
			 <trkpt lat="50.06933" lon="19.98733">
				 <ele>200.6</ele>
			 </trkpt>
			 <trkpt lat="50.06889" lon="19.98799">
				 <ele>200.5</ele>
			 </trkpt>
			 <trkpt lat="50.06899" lon="19.98818">
				 <ele>200.5</ele>
			 </trkpt>
			 <trkpt lat="50.06912" lon="19.98852">
				 <ele>200.3</ele>
			 </trkpt>
			 <trkpt lat="50.06921" lon="19.98909">
				 <ele>200.1</ele>
			 </trkpt>
			 <trkpt lat="50.06931" lon="19.99005">
				 <ele>199.9</ele>
			 </trkpt>
			 <trkpt lat="50.06929" lon="19.99027">
				 <ele>199.8</ele>
			 </trkpt>
			 <trkpt lat="50.069015" lon="19.99095">
				 <ele>199.8</ele>
			 </trkpt>
			 <trkpt lat="50.06874" lon="19.99163">
				 <ele>199.7</ele>
			 </trkpt>
			 <trkpt lat="50.0686" lon="19.99152">
				 <ele>199.5</ele>
			 </trkpt>
			 <trkpt lat="50.06852" lon="19.9915">
				 <ele>199.4</ele>
			 </trkpt>
			 <trkpt lat="50.06778" lon="19.99155">
				 <ele>199.3</ele>
			 </trkpt>
		 </trkseg>
	 </trk>
</gpx>